{"fetchedAt":"2026-06-29T18:07:57.270Z","satellites":[{"id":"43622","name":"BEIDOU-3 M13 (C32)","constellationId":"beidou","omm":{"OBJECT_NAME":"BEIDOU-3 M13 (C32)","OBJECT_ID":"2018-072A","EPOCH":"2026-06-28T06:35:58.003296","MEAN_MOTION":1.86231424,"ECCENTRICITY":0.00069017,"INCLINATION":56.6346,"RA_OF_ASC_NODE":62.2932,"ARG_OF_PERICENTER":331.0537,"MEAN_ANOMALY":28.9612,"EPHEMERIS_TYPE":0,"CLASSIFICATION_TYPE":"U","NORAD_CAT_ID":43622,"ELEMENT_SET_NO":999,"REV_AT_EPOCH":5286,"BSTAR":0,"MEAN_MOTION_DOT":-6.7e-7,"MEAN_MOTION_DDOT":0}},{"id":"43623","name":"BEIDOU-3 M14 (C33)","constellationId":"beidou","omm":{"OBJECT_NAME":"BEIDOU-3 M14 (C33)","OBJECT_ID":"2018-072B","EPOCH":"2026-06-29T05:08:37.907232","MEAN_MOTION":1.86231476,"ECCENTRICITY":0.0005865,"INCLINATION":56.6369,"RA_OF_ASC_NODE":62.2566,"ARG_OF_PERICENTER":5.522,"MEAN_ANOMALY":354.5425,"EPHEMERIS_TYPE":0,"CLASSIFICATION_TYPE":"U","NORAD_CAT_ID":43623,"ELEMENT_SET_NO":999,"REV_AT_EPOCH":5287,"BSTAR":0,"MEAN_MOTION_DOT":-5.8e-7,"MEAN_MOTION_DDOT":0}},{"id":"43647","name":"BEIDOU-3 M16 (C35)","constellationId":"beidou","omm":{"OBJECT_NAME":"BEIDOU-3 M16 (C35)","OBJECT_ID":"2018-078A","EPOCH":"2026-06-28T19:58:48.927936","MEAN_MOTION":1.8623247,"ECCENTRICITY":0.00069173,"INCLINATION":54.0786,"RA_OF_ASC_NODE":299.5778,"ARG_OF_PERICENTER":40.5886,"MEAN_ANOMALY":319.4668,"EPHEMERIS_TYPE":0,"CLASSIFICATION_TYPE":"U","NORAD_CAT_ID":43647,"ELEMENT_SET_NO":999,"REV_AT_EPOCH":5237,"BSTAR":0,"MEAN_MOTION_DOT":-8e-7,"MEAN_MOTION_DDOT":0}},{"id":"43648","name":"BEIDOU-3 M15 (C34)","constellationId":"beidou","omm":{"OBJECT_NAME":"BEIDOU-3 M15 (C34)","OBJECT_ID":"2018-078B","EPOCH":"2026-06-28T23:04:58.594656","MEAN_MOTION":1.86232603,"ECCENTRICITY":0.0003927,"INCLINATION":54.074,"RA_OF_ASC_NODE":299.5736,"ARG_OF_PERICENTER":58.0556,"MEAN_ANOMALY":301.9871,"EPHEMERIS_TYPE":0,"CLASSIFICATION_TYPE":"U","NORAD_CAT_ID":43648,"ELEMENT_SET_NO":999,"REV_AT_EPOCH":5239,"BSTAR":0,"MEAN_MOTION_DOT":-7.9e-7,"MEAN_MOTION_DDOT":0}},{"id":"43706","name":"BEIDOU-3 M17 (C36)","constellationId":"beidou","omm":{"OBJECT_NAME":"BEIDOU-3 M17 (C36)","OBJECT_ID":"2018-093A","EPOCH":"2026-06-26T12:03:21.339648","MEAN_MOTION":1.86228594,"ECCENTRICITY":0.0010136,"INCLINATION":54.1697,"RA_OF_ASC_NODE":181.98,"ARG_OF_PERICENTER":292.4713,"MEAN_ANOMALY":110.1482,"EPHEMERIS_TYPE":0,"CLASSIFICATION_TYPE":"U","NORAD_CAT_ID":43706,"ELEMENT_SET_NO":999,"REV_AT_EPOCH":5171,"BSTAR":0,"MEAN_MOTION_DOT":9.5e-7,"MEAN_MOTION_DDOT":0}},{"id":"43707","name":"BEIDOU-3 M18 (C37)","constellationId":"beidou","omm":{"OBJECT_NAME":"BEIDOU-3 M18 (C37)","OBJECT_ID":"2018-093B","EPOCH":"2026-06-26T07:15:06.898752","MEAN_MOTION":1.8622664,"ECCENTRICITY":0.0008135,"INCLINATION":54.1702,"RA_OF_ASC_NODE":181.9788,"ARG_OF_PERICENTER":321.151,"MEAN_ANOMALY":38.8204,"EPHEMERIS_TYPE":0,"CLASSIFICATION_TYPE":"U","NORAD_CAT_ID":43707,"ELEMENT_SET_NO":999,"REV_AT_EPOCH":5170,"BSTAR":0,"MEAN_MOTION_DOT":9.7e-7,"MEAN_MOTION_DDOT":0}},{"id":"44204","name":"BEIDOU-3 IGSO-1 (C38)","constellationId":"beidou","omm":{"OBJECT_NAME":"BEIDOU-3 IGSO-1 (C38)","OBJECT_ID":"2019-023A","EPOCH":"2026-06-28T11:39:23.419872","MEAN_MOTION":1.00288999,"ECCENTRICITY":0.0025747,"INCLINATION":58.7105,"RA_OF_ASC_NODE":37.533,"ARG_OF_PERICENTER":224.4783,"MEAN_ANOMALY":307.9858,"EPHEMERIS_TYPE":0,"CLASSIFICATION_TYPE":"U","NORAD_CAT_ID":44204,"ELEMENT_SET_NO":999,"REV_AT_EPOCH":732,"BSTAR":0,"MEAN_MOTION_DOT":-0.00000206,"MEAN_MOTION_DDOT":0}},{"id":"44231","name":"BEIDOU-2 G8 (C01)","constellationId":"beidou","omm":{"OBJECT_NAME":"BEIDOU-2 G8 (C01)","OBJECT_ID":"2019-027A","EPOCH":"2026-06-27T23:27:31.406112","MEAN_MOTION":1.00268598,"ECCENTRICITY":0.00098358,"INCLINATION":1.6855,"RA_OF_ASC_NODE":74.5233,"ARG_OF_PERICENTER":285.1014,"MEAN_ANOMALY":52.8069,"EPHEMERIS_TYPE":0,"CLASSIFICATION_TYPE":"U","NORAD_CAT_ID":44231,"ELEMENT_SET_NO":999,"REV_AT_EPOCH":2618,"BSTAR":0,"MEAN_MOTION_DOT":-0.00000238,"MEAN_MOTION_DDOT":0}},{"id":"44542","name":"BEIDOU-3 M24 (C46)","constellationId":"beidou","omm":{"OBJECT_NAME":"BEIDOU-3 M24 (C46)","OBJECT_ID":"2019-061A","EPOCH":"2026-06-28T12:26:37.216320","MEAN_MOTION":1.86229281,"ECCENTRICITY":0.00085409,"INCLINATION":54.3968,"RA_OF_ASC_NODE":182.3453,"ARG_OF_PERICENTER":358.6533,"MEAN_ANOMALY":1.3666,"EPHEMERIS_TYPE":0,"CLASSIFICATION_TYPE":"U","NORAD_CAT_ID":44542,"ELEMENT_SET_NO":999,"REV_AT_EPOCH":4600,"BSTAR":0,"MEAN_MOTION_DOT":7.9e-7,"MEAN_MOTION_DDOT":0}},{"id":"44543","name":"BEIDOU-3 M23 (C45)","constellationId":"beidou","omm":{"OBJECT_NAME":"BEIDOU-3 M23 (C45)","OBJECT_ID":"2019-061B","EPOCH":"2026-06-28T23:33:01.963008","MEAN_MOTION":1.86227665,"ECCENTRICITY":0.0005837,"INCLINATION":54.3959,"RA_OF_ASC_NODE":182.2982,"ARG_OF_PERICENTER":339.0191,"MEAN_ANOMALY":242.7984,"EPHEMERIS_TYPE":0,"CLASSIFICATION_TYPE":"U","NORAD_CAT_ID":44543,"ELEMENT_SET_NO":999,"REV_AT_EPOCH":4601,"BSTAR":0,"MEAN_MOTION_DOT":7.6e-7,"MEAN_MOTION_DDOT":0}},{"id":"44793","name":"BEIDOU-3 M22 (C44)","constellationId":"beidou","omm":{"OBJECT_NAME":"BEIDOU-3 M22 (C44)","OBJECT_ID":"2019-078A","EPOCH":"2026-06-28T08:36:12.538944","MEAN_MOTION":1.86227483,"ECCENTRICITY":0.00062953,"INCLINATION":53.925,"RA_OF_ASC_NODE":299.4342,"ARG_OF_PERICENTER":52.2108,"MEAN_ANOMALY":307.8484,"EPHEMERIS_TYPE":0,"CLASSIFICATION_TYPE":"U","NORAD_CAT_ID":44793,"ELEMENT_SET_NO":999,"REV_AT_EPOCH":4485,"BSTAR":0,"MEAN_MOTION_DOT":-8.4e-7,"MEAN_MOTION_DDOT":0}},{"id":"44794","name":"BEIDOU-3 M21 (C43)","constellationId":"beidou","omm":{"OBJECT_NAME":"BEIDOU-3 M21 (C43)","OBJECT_ID":"2019-078B","EPOCH":"2026-06-27T23:04:25.677120","MEAN_MOTION":1.86227959,"ECCENTRICITY":0.00039786,"INCLINATION":53.8982,"RA_OF_ASC_NODE":299.4091,"ARG_OF_PERICENTER":49.1157,"MEAN_ANOMALY":310.9195,"EPHEMERIS_TYPE":0,"CLASSIFICATION_TYPE":"U","NORAD_CAT_ID":44794,"ELEMENT_SET_NO":999,"REV_AT_EPOCH":4485,"BSTAR":0,"MEAN_MOTION_DOT":-8.7e-7,"MEAN_MOTION_DDOT":0}},{"id":"44864","name":"BEIDOU-3 M19 (C41)","constellationId":"beidou","omm":{"OBJECT_NAME":"BEIDOU-3 M19 (C41)","OBJECT_ID":"2019-090A","EPOCH":"2026-06-28T08:25:52.308768","MEAN_MOTION":1.86231816,"ECCENTRICITY":0.00174253,"INCLINATION":56.5682,"RA_OF_ASC_NODE":62.4212,"ARG_OF_PERICENTER":297.4344,"MEAN_ANOMALY":161.4191,"EPHEMERIS_TYPE":0,"CLASSIFICATION_TYPE":"U","NORAD_CAT_ID":44864,"ELEMENT_SET_NO":999,"REV_AT_EPOCH":4444,"BSTAR":0,"MEAN_MOTION_DOT":-6.7e-7,"MEAN_MOTION_DDOT":0}}]}